start=new Date('2023-05-18T00:00:00.000Z').valueOf();
sats=[{"OBJECT_ID":"2021-017M","TLE_LINE2":"2 47733  53.0527 151.7806 0001307  82.4564 277.6573 15.06402614122850","SEMIMAJOR_AXIS":"6925.341","TIME_SYSTEM":"UTC","PERIAPSIS":"546.300","OBJECT_NAME":"STARLINK-2143","OBJECT_TYPE":"PAYLOAD","REV_AT_EPOCH":"12285","MEAN_ANOMALY":"277.6573","CENTER_NAME":"EARTH","ECCENTRICITY":"0.00013070","INCLINATION":"53.0527","ARG_OF_PERICENTER":"82.4564","COUNTRY_CODE":"US","TLE_LINE1":"1 47733U 21017M   23137.73823191  .00001012  00000-0  86835-4 0  9993","BSTAR":"0.00008683500000","EPOCH":"2023-05-17T17:43:03.237024","EPHEMERIS_TYPE":"0","NORAD_CAT_ID":"47733","REF_FRAME":"TEME","MEAN_ELEMENT_THEORY":"SGP4","ELEMENT_SET_NO":"999","APOAPSIS":"548.111","MEAN_MOTION_DOT":"0.00001012","MEAN_MOTION":"15.06402614","FILE":"3910633","RA_OF_ASC_NODE":"151.7806","RCS_SIZE":"LARGE","DECAY_DATE":null,"LAUNCH_DATE":"2021-03-04","PERIOD":"95.592","GP_ID":"232042235","MEAN_MOTION_DDOT":"0.0000000000000","CLASSIFICATION_TYPE":"U","SITE":"AFETR"},{"MEAN_MOTION":"15.06406485","MEAN_MOTION_DOT":"0.00001890","DECAY_DATE":null,"RCS_SIZE":"LARGE","RA_OF_ASC_NODE":"143.7764","FILE":"3910633","LAUNCH_DATE":"2021-03-04","SITE":"AFETR","CLASSIFICATION_TYPE":"U","PERIOD":"95.592","GP_ID":"232042487","MEAN_MOTION_DDOT":"0.0000000000000","OBJECT_NAME":"STARLINK-2144","TIME_SYSTEM":"UTC","PERIAPSIS":"546.282","OBJECT_TYPE":"PAYLOAD","TLE_LINE2":"2 47734  53.0539 143.7764 0001316  87.6246 272.4894 15.06406485122895","SEMIMAJOR_AXIS":"6925.329","OBJECT_ID":"2021-017N","INCLINATION":"53.0539","ECCENTRICITY":"0.00013160","ARG_OF_PERICENTER":"87.6246","COUNTRY_CODE":"US","CENTER_NAME":"EARTH","MEAN_ANOMALY":"272.4894","REV_AT_EPOCH":"12289","MEAN_ELEMENT_THEORY":"SGP4","EPHEMERIS_TYPE":"0","EPOCH":"2023-05-17T07:02:08.109888","BSTAR":"0.00014573000000","TLE_LINE1":"1 47734U 21017N   23137.29314942  .00001890  00000-0  14573-3 0  9997","REF_FRAME":"TEME","NORAD_CAT_ID":"47734","APOAPSIS":"548.105","ELEMENT_SET_NO":"999"},{"MEAN_MOTION_DDOT":"0.0000000000000","GP_ID":"232043237","PERIOD":"95.591","SITE":"AFETR","CLASSIFICATION_TYPE":"U","LAUNCH_DATE":"2021-03-04","FILE":"3910633","RA_OF_ASC_NODE":"69.1649","DECAY_DATE":null,"RCS_SIZE":"LARGE","MEAN_MOTION_DOT":"0.00011992","MEAN_MOTION":"15.06425321","ELEMENT_SET_NO":"999","APOAPSIS":"548.182","REF_FRAME":"TEME","NORAD_CAT_ID":"47735","BSTAR":"0.00082204000000","TLE_LINE1":"1 47735U 21017P   23137.24295334  .00011992  00000-0  82204-3 0  9996","EPHEMERIS_TYPE":"0","EPOCH":"2023-05-17T05:49:51.168576","MEAN_ELEMENT_THEORY":"SGP4","REV_AT_EPOCH":"12391","MEAN_ANOMALY":"279.2702","CENTER_NAME":"EARTH","ARG_OF_PERICENTER":"80.8458","COUNTRY_CODE":"US","ECCENTRICITY":"0.00015100","INCLINATION":"53.0553","OBJECT_ID":"2021-017P","SEMIMAJOR_AXIS":"6925.271","TLE_LINE2":"2 47735  53.0553  69.1649 0001510  80.8458 279.2702 15.06425321123918","OBJECT_TYPE":"PAYLOAD","TIME_SYSTEM":"UTC","PERIAPSIS":"546.090","OBJECT_NAME":"STARLINK-2146"},{"LAUNCH_DATE":"2021-03-04","CLASSIFICATION_TYPE":"U","SITE":"AFETR","MEAN_MOTION_DDOT":"0.0000000000000","GP_ID":"232041486","PERIOD":"95.592","MEAN_MOTION":"15.06403353","MEAN_MOTION_DOT":"0.00001369","RA_OF_ASC_NODE":"133.9206","DECAY_DATE":null,"RCS_SIZE":"LARGE","FILE":"3910633","MEAN_ELEMENT_THEORY":"SGP4","NORAD_CAT_ID":"47736","REF_FRAME":"TEME","BSTAR":"0.00011076000000","TLE_LINE1":"1 47736U 21017Q   23137.26090254  .00001369  00000-0  11076-3 0  9999","EPHEMERIS_TYPE":"0","EPOCH":"2023-05-17T06:15:41.979456","APOAPSIS":"548.111","ELEMENT_SET_NO":"999","OBJECT_TYPE":"PAYLOAD","TIME_SYSTEM":"UTC","PERIAPSIS":"546.295","OBJECT_NAME":"STARLINK-2147","OBJECT_ID":"2021-017Q","TLE_LINE2":"2 47736  53.0539 133.9206 0001311  86.4697 273.6442 15.06403353123064","SEMIMAJOR_AXIS":"6925.338","ARG_OF_PERICENTER":"86.4697","COUNTRY_CODE":"US","ECCENTRICITY":"0.00013110","INCLINATION":"53.0539","REV_AT_EPOCH":"12306","MEAN_ANOMALY":"273.6442","CENTER_NAME":"EARTH"},{"MEAN_MOTION_DOT":"0.00001649","MEAN_MOTION":"15.35747045","FILE":"3910633","DECAY_DATE":null,"RCS_SIZE":"LARGE","RA_OF_ASC_NODE":"343.2985","LAUNCH_DATE":"2021-03-04","GP_ID":"232041736","MEAN_MOTION_DDOT":"0.0000000000000","PERIOD":"93.765","SITE":"AFETR","CLASSIFICATION_TYPE":"U","TLE_LINE2":"2 47737  53.0552 343.2985 0000920  88.9460 271.1647 15.35747045125243","SEMIMAJOR_AXIS":"6836.839","OBJECT_ID":"2021-017R","OBJECT_TYPE":"PAYLOAD","OBJECT_NAME":"STARLINK-2148","PERIAPSIS":"458.075","TIME_SYSTEM":"UTC","CENTER_NAME":"EARTH","REV_AT_EPOCH":"12524","MEAN_ANOMALY":"271.1647","COUNTRY_CODE":"US","ARG_OF_PERICENTER":"88.9460","INCLINATION":"53.0552","ECCENTRICITY":"0.00009200","REF_FRAME":"TEME","NORAD_CAT_ID":"47737","EPHEMERIS_TYPE":"0","EPOCH":"2023-05-17T20:57:03.417408","BSTAR":"0.00005756400000","TLE_LINE1":"1 47737U 21017R   23137.87295622  .00001649  00000-0  57564-4 0  9997","MEAN_ELEMENT_THEORY":"SGP4","ELEMENT_SET_NO":"999","APOAPSIS":"459.333"},{"COUNTRY_CODE":"US","ARG_OF_PERICENTER":"85.1793","ECCENTRICITY":"0.00011930","INCLINATION":"53.0540","MEAN_ANOMALY":"274.9332","REV_AT_EPOCH":"12312","CENTER_NAME":"EARTH","OBJECT_TYPE":"PAYLOAD","TIME_SYSTEM":"UTC","PERIAPSIS":"546.380","OBJECT_NAME":"STARLINK-2149","OBJECT_ID":"2021-017S","TLE_LINE2":"2 47738  53.0540 132.2291 0001193  85.1793 274.9332 15.06402553123125","SEMIMAJOR_AXIS":"6925.341","APOAPSIS":"548.032","ELEMENT_SET_NO":"999","MEAN_ELEMENT_THEORY":"SGP4","REF_FRAME":"TEME","NORAD_CAT_ID":"47738","TLE_LINE1":"1 47738U 21017S   23137.69955427 -.00000873  00000-0 -39741-4 0  9991","BSTAR":"-0.00003974100000","EPOCH":"2023-05-17T16:47:21.488928","EPHEMERIS_TYPE":"0","RA_OF_ASC_NODE":"132.2291","DECAY_DATE":null,"RCS_SIZE":"LARGE","FILE":"3910633","MEAN_MOTION":"15.06402553","MEAN_MOTION_DOT":"-0.00000873","SITE":"AFETR","CLASSIFICATION_TYPE":"U","GP_ID":"232042987","MEAN_MOTION_DDOT":"0.0000000000000","PERIOD":"95.592","LAUNCH_DATE":"2021-03-04"},{"TLE_LINE2":"2 47739  53.0525 156.5556 0001296  91.4046 268.7091 15.06399673122790","SEMIMAJOR_AXIS":"6925.350","OBJECT_ID":"2021-017T","OBJECT_TYPE":"PAYLOAD","OBJECT_NAME":"STARLINK-2150","PERIAPSIS":"546.317","TIME_SYSTEM":"UTC","CENTER_NAME":"EARTH","MEAN_ANOMALY":"268.7091","REV_AT_EPOCH":"12279","COUNTRY_CODE":"US","ARG_OF_PERICENTER":"91.4046","INCLINATION":"53.0525","ECCENTRICITY":"0.00012960","REF_FRAME":"TEME","NORAD_CAT_ID":"47739","EPOCH":"2023-05-17T18:54:03.068064","EPHEMERIS_TYPE":"0","TLE_LINE1":"1 47739U 21017T   23137.78753551  .00001320  00000-0  10751-3 0  9991","BSTAR":"0.00010751000000","MEAN_ELEMENT_THEORY":"SGP4","ELEMENT_SET_NO":"999","APOAPSIS":"548.112","MEAN_MOTION_DOT":"0.00001320","MEAN_MOTION":"15.06399673","FILE":"3910633","RCS_SIZE":"LARGE","DECAY_DATE":null,"RA_OF_ASC_NODE":"156.5556","LAUNCH_DATE":"2021-03-04","MEAN_MOTION_DDOT":"0.0000000000000","GP_ID":"232042738","PERIOD":"95.592","SITE":"AFETR","CLASSIFICATION_TYPE":"U"},{"LAUNCH_DATE":"2021-03-04","SITE":"AFETR","CLASSIFICATION_TYPE":"U","GP_ID":"232041986","MEAN_MOTION_DDOT":"0.0000000000000","PERIOD":"95.592","MEAN_MOTION":"15.06401638","MEAN_MOTION_DOT":"0.00000867","RA_OF_ASC_NODE":"141.9379","DECAY_DATE":null,"RCS_SIZE":"LARGE","FILE":"3910633","MEAN_ELEMENT_THEORY":"SGP4","NORAD_CAT_ID":"47740","REF_FRAME":"TEME","BSTAR":"0.00007711100000","TLE_LINE1":"1 47740U 21017U   23137.70229221  .00000867  00000-0  77111-4 0  9996","EPHEMERIS_TYPE":"0","EPOCH":"2023-05-17T16:51:18.046944","APOAPSIS":"548.060","ELEMENT_SET_NO":"999","OBJECT_TYPE":"PAYLOAD","PERIAPSIS":"546.357","TIME_SYSTEM":"UTC","OBJECT_NAME":"STARLINK-2152","OBJECT_ID":"2021-017U","TLE_LINE2":"2 47740  53.0539 141.9379 0001229 104.2556 255.8570 15.06401638122988","SEMIMAJOR_AXIS":"6925.344","ARG_OF_PERICENTER":"104.2556","COUNTRY_CODE":"US","ECCENTRICITY":"0.00012290","INCLINATION":"53.0539","REV_AT_EPOCH":"12298","MEAN_ANOMALY":"255.8570","CENTER_NAME":"EARTH"},{"SITE":"AFETR","CLASSIFICATION_TYPE":"U","PERIOD":"95.591","GP_ID":"232042236","MEAN_MOTION_DDOT":"0.0000000000000","LAUNCH_DATE":"2021-03-04","RA_OF_ASC_NODE":"141.8762","RCS_SIZE":"LARGE","DECAY_DATE":null,"FILE":"3910633","MEAN_MOTION":"15.06413688","MEAN_MOTION_DOT":"0.00002476","APOAPSIS":"548.191","ELEMENT_SET_NO":"999","MEAN_ELEMENT_THEORY":"SGP4","BSTAR":"0.00018496000000","TLE_LINE1":"1 47741U 21017V   23137.71701571  .00002476  00000-0  18496-3 0  9999","EPHEMERIS_TYPE":"0","EPOCH":"2023-05-17T17:12:30.157344","NORAD_CAT_ID":"47741","REF_FRAME":"TEME","ECCENTRICITY":"0.00014720","INCLINATION":"53.0544","COUNTRY_CODE":"US","ARG_OF_PERICENTER":"78.4510","MEAN_ANOMALY":"281.6644","REV_AT_EPOCH":"12294","CENTER_NAME":"EARTH","TIME_SYSTEM":"UTC","PERIAPSIS":"546.152","OBJECT_NAME":"STARLINK-2154","OBJECT_TYPE":"PAYLOAD","OBJECT_ID":"2021-017V","TLE_LINE2":"2 47741  53.0544 141.8762 0001472  78.4510 281.6644 15.06413688122945","SEMIMAJOR_AXIS":"6925.307"},{"MEAN_MOTION":"15.06402064","MEAN_MOTION_DOT":"0.00000520","DECAY_DATE":null,"RCS_SIZE":"LARGE","RA_OF_ASC_NODE":"132.4138","FILE":"3910633","LAUNCH_DATE":"2021-03-04","SITE":"AFETR","CLASSIFICATION_TYPE":"U","GP_ID":"232042488","MEAN_MOTION_DDOT":"0.0000000000000","PERIOD":"95.592","OBJECT_TYPE":"PAYLOAD","OBJECT_NAME":"STARLINK-2156","PERIAPSIS":"546.350","TIME_SYSTEM":"UTC","SEMIMAJOR_AXIS":"6925.342","TLE_LINE2":"2 47742  53.0543 132.4138 0001238  81.4688 278.6441 15.06402064123115","OBJECT_ID":"2021-017W","ARG_OF_PERICENTER":"81.4688","COUNTRY_CODE":"US","INCLINATION":"53.0543","ECCENTRICITY":"0.00012380","CENTER_NAME":"EARTH","MEAN_ANOMALY":"278.6441","REV_AT_EPOCH":"12311","MEAN_ELEMENT_THEORY":"SGP4","REF_FRAME":"TEME","NORAD_CAT_ID":"47742","EPHEMERIS_TYPE":"0","EPOCH":"2023-05-17T14:18:41.991840","BSTAR":"0.00005380800000","TLE_LINE1":"1 47742U 21017W   23137.59631935  .00000520  00000-0  53808-4 0  9997","APOAPSIS":"548.065","ELEMENT_SET_NO":"999"}];
